[{"OBJECT_NAME":"STARLINK-4024","OBJECT_ID":"2022-052B","EPOCH":"2026-03-09T19:32:15.105408","MEAN_MOTION":15.08830158,"ECCENTRICITY":0.00012666,"INCLINATION":53.2165,"RA_OF_ASC_NODE":278.6679,"ARG_OF_PERICENTER":89.5333,"MEAN_ANOMALY":270.5804,"EPHEMERIS_TYPE":0,"CLASSIFICATION_TYPE":"U","NORAD_CAT_ID":52599,"ELEMENT_SET_NO":999,"REV_AT_EPOCH":21167,"BSTAR":9.2430891e-5,"MEAN_MOTION_DOT":1.183e-5,"MEAN_MOTION_DDOT":0},{"OBJECT_NAME":"SL-18 R\/B","OBJECT_ID":"2001-007B","EPOCH":"2026-03-09T23:25:11.323200","MEAN_MOTION":15.07301441,"ECCENTRICITY":0.00085554,"INCLINATION":97.6926,"RA_OF_ASC_NODE":87.6817,"ARG_OF_PERICENTER":353.225,"MEAN_ANOMALY":6.886,"EPHEMERIS_TYPE":0,"CLASSIFICATION_TYPE":"U","NORAD_CAT_ID":26703,"ELEMENT_SET_NO":999,"REV_AT_EPOCH":64619,"BSTAR":0.00021543689,"MEAN_MOTION_DOT":3.19e-5,"MEAN_MOTION_DDOT":0}]
